DELTA 2 R/B             
1 25876U 99041E   19197.54464589 -.00000181  00000-0  11489-4 0  9991
2 25876  51.7617 200.2433 0531501  81.6874 284.3935 14.04333962 21282
HELIOS 1B               
1 25977U 99064A   19198.02063771  .00000002  00000-0  72350-5 0  9996
2 25977  98.2355 337.1239 0001638  44.0580 316.0763 14.82425982 56575
TERRA                   
1 25994U 99068A   19198.17045586 -.00000195  00000-0 -33241-4 0  9999
2 25994  98.2051 272.2852 0001324  87.7503 272.3892 14.57111470 41340
SL-16 R/B               
1 26070U 00006B   19198.34561071  .00000089  00000-0  69795-4 0  9993
2 26070  71.0022 159.5392 0018837 275.3017  84.5957 14.15459907  5036
TITAN 4B R/B            
1 26474U 00047B   19198.19760037  .00000026  00000-0  13296-4 0  9998
2 26474  67.9941 281.1730 0058502 211.7371 148.0241 14.95839940 29031
ENVISAT                 
1 27386U 02009A   19198.49791501 -.00000016  00000-0  83196-5 0  9991
2 27386  98.1478 218.0500 0001397  94.7093  77.4500 14.37952700910330
IDEFIX & ARIANE 42P R/B 
1 27422U 02021B   19198.00912625 -.00000034  00000-0  27952-5 0  9993
2 27422  98.3016 168.9544 0012961 140.9046 219.3076 14.29273907895213
AQUA                    
1 27424U 02022A   19198.13304611  .00000034  00000-0  17626-4 0  9995
2 27424  98.2041 138.5513 0001587  13.0246  49.4321 14.57119167914940
CZ-4B R/B               
1 27432U 02024C   19198.47669390 -.00000030  00000-0  81837-5 0  9994
2 27432  99.0701 190.2424 0051263  45.1395 107.5482 14.14081658886245
MIDORI II (ADEOS-II)    
1 27597U 02056A   19198.07523963  .00000002  00000-0  18196-4 0  9997
2 27597  98.4736 149.9952 0000288 101.8293 258.2921 14.27404471863820
H-2A R/B                
1 27601U 02056E   19198.20805400  .00000048  00000-0  32470-4 0  9998
2 27601  98.2731 245.4110 0071831 197.5092 206.8461 14.31900277866571
CZ-4B R/B               
1 28059U 03049C   19198.38029915 -.00000013  00000-0  85845-5 0  9995
2 28059  98.4928 106.0376 0051341  85.9931 274.7131 14.52566524834020
CZ-2C R/B               
1 28222U 04012C   19197.99841306  .00000096  00000-0  97846-5 0  9994
2 28222  97.6278 155.7913 0049007 101.5166 300.8516 15.10106317835259
SL-16 R/B               
1 28353U 04021B   19197.45612257 -.00000305  00000-0 -13489-3 0  9995
2 28353  71.0009 286.1047 0003501 151.1041 209.0276 14.14217782779501
CZ-4B R/B               
1 28415U 04035C   19198.14437389 -.00000010  00000-0  37064-5 0  9996
2 28415  97.6589 237.4558 0053093  59.0354 301.6075 15.06704035812998
CZ-2C R/B               
1 28480U 04046B   19198.18066192  .00000014  00000-0  20046-4 0  9998
2 28480  98.1280 253.2800 0142875 139.7688 286.0964 14.25704174762523
ARIANE 5 R/B            
1 28499U 04049H   19198.35506027  .00000001  00000-0  76800-5 0  9992
2 28499  98.0527 294.1964 0090838 279.7551 119.6838 14.79972536786420
CZ-2D R/B               
1 28738U 05024B   19198.10803560  .00000251  00000-0  18381-4 0  9993
2 28738  97.4128 226.2383 0010316 264.7642  95.2411 15.11832689770605
SUZAKU (ASTRO-EII)      
1 28773U 05025A   19197.93171352  .00000588  00000-0  24596-4 0  9998
2 28773  31.3835  44.0669 0004285  60.3605 299.7468 15.17113718772804
ALOS (DAICHI)           
1 28931U 06002A   19198.45786500  .00000083  00000-0  24953-4 0  9992
2 28931  97.8197 196.2292 0002395  69.5491 290.5990 14.62622627718581
H-2A R/B                
1 28932U 06002B   19198.00559142  .00000250  00000-0  29389-4 0  9998
2 28932  98.2823 164.9156 0088657 343.3366  56.0486 14.92002877731080
AKARI (ASTRO-F)         
1 28939U 06005A   19198.45389842  .00002115  00000-0  60521-4 0  9990
2 28939  98.1923 130.4186 0098537  59.2207 301.8688 15.32627048729421
RESURS-DK 1             
1 29228U 06021A   19197.48015221 -.00000015  00000-0  62772-5 0  9998
2 29228  69.9365 325.7819 0007721 262.9680  97.0602 15.02449910722132
GENESIS 1               
1 29252U 06029A   19198.48177321  .00000302  00000-0  24893-4 0  9993
2 29252  64.5121 320.2710 0045851 232.5299 127.1650 15.17771335717187
CZ-4B R/B               
1 29507U 06046C   19198.13146103  .00000856  00000-0  71514-4 0  9997
2 29507  97.7631 215.7775 0047584 214.7310 145.0805 15.00441193694985
CZ-2C R/B               
1 31114U 07010B   19197.46965614 -.00000019  00000-0  98373-5 0  9992
2 31114  98.3071  67.1314 0059904 167.6161 192.6504 14.19295457635218
COSMO-SKYMED 1          
1 31598U 07023A   19198.54533251  .00000294  00000-0  43457-4 0  9996
2 31598  97.8900  21.5128 0001258  77.7036 282.4338 14.82155293655079
GENESIS 2               
1 31789U 07028A   19197.91748788  .00000028  00000-0  12007-4 0  9998
2 31789  64.5034   2.9463 0051105 284.8747  74.6719 15.16952551664110
COSMOS 2428             
1 31792U 07029A   19198.44368373 -.00000256  00000-0 -11276-3 0  9991
2 31792  70.9413 258.1567 0008114 226.5230 133.5217 14.12465159621421
SL-16 R/B               
1 31793U 07029B   19198.13675223  .00000211  00000-0  13488-3 0  9999
2 31793  70.9747 232.8340 0001809 277.5724 140.5213 14.14420278622170
KORONAS-FOTON           
1 33504U 09003A   19197.50880988 -.00000067  00000-0 -52347-5 0  9991
2 33504  82.4410 198.0302 0019398   9.8620 350.2988 15.15431567576454
H-2A R/B                
1 38341U 12025E   19198.38988133  .00000082  00000-0  17253-4 0  9992
2 38341  98.4545 327.6440 0054661 231.3882 128.2429 14.83903593387608
CUSAT 2 & FALCON 9 R/B  
1 39271U 13055G   19197.61495722  .00004494  00000-0  10802-3 0  9994
2 39271  80.9676 268.4665 0601304 100.9555 265.9851 14.45198901302032
SL-4 R/B                
1 39679U 14021B   19197.46747662 -.00000066  00000-0  15133-4 0  9991
2 39679  51.6157 230.8966 0172491 218.1604 140.7050 15.06121323288550
ALOS-2                  
1 39766U 14029A   19198.51111294 -.00000257  00000-0 -27545-4 0  9992
2 39766  97.9225 294.9229 0001283  78.4497 281.6867 14.79468680278027
SL-27 R/B               
1 40354U 14084B   19197.86881491  .00000380  00000-0  10725-4 0  9995
2 40354  74.7382   4.1512 0038071   1.4227 358.7085 15.39739419256322
ASTRO-H (HITOMI)        
1 41337U 16012A   19197.84209285  .00000171  00000-0  69301-5 0  9996
2 41337  31.0066 343.8704 0012513 344.3419  15.6828 14.98591427186965
TIANGONG-2              
1 41765U 16057A   19198.31485002  .00002453  00000-0  31793-4 0  9994
2 41765  42.7821 146.9630 0006340 114.1795  14.7257 15.61910852161753
SHENZHOU-11 MODULE      
1 41868U 16061G   19197.77254955  .00009760  00000-0  51193-4 0  9997
2 41868  42.7935  66.1239 0008321 260.2130 141.4283 15.80929116152557
HXMT (HUIYAN)           
1 42758U 17034A   19198.15024247  .00000097  00000-0  19863-4 0  9991
2 42758  43.0191  80.6144 0009797  65.8942  70.8555 15.08617451115077
SAOCOM 1A               
1 43641U 18076A   19198.48605960  .00000009  00000-0  77115-5 0  9991
2 43641  97.8881  24.4178 0001423  78.2406 281.8978 14.82157212 41836
